STARLINK-32601          
1 61973U 24210Q   26068.62174043  .00036880  00000+0  13424-2 0  9994
2 61973  43.0004 179.8611 0001921 246.0648 114.0002 15.27595740 74874
AL MUNTHER              
1 63240U 25052AG  26068.64540749  .00017933  00000+0  65015-3 0  9992
2 63240  97.4001 323.9152 0008027 130.7043 229.4895 15.28381521 54798
